[{"OBJECT_NAME":"UHETSAT","OBJECT_ID":"2023-185E","EPOCH":"2026-03-09T22:39:26.455680","MEAN_MOTION":15.29797662,"ECCENTRICITY":0.00118435,"INCLINATION":97.3584,"RA_OF_ASC_NODE":137.3576,"ARG_OF_PERICENTER":307.7346,"MEAN_ANOMALY":52.2821,"EPHEMERIS_TYPE":0,"CLASSIFICATION_TYPE":"U","NORAD_CAT_ID":58466,"ELEMENT_SET_NO":999,"REV_AT_EPOCH":12611,"BSTAR":0.00030513019,"MEAN_MOTION_DOT":8.749e-5,"MEAN_MOTION_DDOT":0},{"OBJECT_NAME":"STARLINK-32212","OBJECT_ID":"2024-131B","EPOCH":"2026-03-09T08:31:31.198944","MEAN_MOTION":15.30199835,"ECCENTRICITY":0.00015095,"INCLINATION":53.1616,"RA_OF_ASC_NODE":54.2633,"ARG_OF_PERICENTER":79.1336,"MEAN_ANOMALY":280.9835,"EPHEMERIS_TYPE":0,"CLASSIFICATION_TYPE":"U","NORAD_CAT_ID":60256,"ELEMENT_SET_NO":999,"REV_AT_EPOCH":9166,"BSTAR":-6.7032466e-5,"MEAN_MOTION_DOT":-2.344e-5,"MEAN_MOTION_DDOT":0}]
